ONEWEB-0446             
1 51640U 22012U   25288.67398904  .00000243  00000+0  66033-3 0  9993
2 51640  87.8750  85.0379 0001859  92.7113 267.4227 13.10369391177305
ONEWEB-0448             
1 51641U 22012V   25288.67896196 -.00000048  00000+0 -17295-3 0  9991
2 51641  87.8750  85.0367 0001534  94.7546 265.3757 13.10369203177278
ONEWEB-0449             
1 51642U 22012W   25288.83665198 -.00000336  00000+0 -99971-3 0  9997
2 51642  87.8748  84.9751 0001423  76.2607 283.8678 13.10369143177305
ONEWEB-0451             
1 51643U 22012X   25288.77031926 -.00000104  00000+0 -30190-3 0  9998
2 51643  87.9106  54.4318 0001638  94.4142 265.7176 13.17648602181472
ONEWEB-0452             
1 51644U 22012Y   25288.38893191  .00000057  00000+0  11297-3 0  9998
2 51644  87.9096  54.5671 0001412  94.0140 266.1153 13.17647223181432
ONEWEB-0456             
1 51646U 22012AA  25288.69388463 -.00000644  00000+0 -18820-2 0  9997
2 51646  87.8764  84.9681 0001580  99.8780 260.2526 13.10370576177321
ONEWEB-0457             
1 51647U 22012AB  25288.44159758  .00000393  00000+0  10894-2 0  9996
2 51647  87.8749  85.0720 0001817  81.1286 279.0047 13.10369616177294
ONEWEB-0458             
1 51648U 22012AC  25288.46315626 -.00000591  00000+0 -17281-2 0  9996
2 51648  87.8753  85.0388 0001433  90.4315 269.6976 13.10370723177253
